[
    {
        "CCSDS_OMM_VERS": "3.0",
        "COMMENT": "GENERATED VIA SPACE-TRACK.ORG API",
        "CREATION_DATE": "2025-04-14T03:05:54",
        "ORIGINATOR": "18 SPCS",
        "OBJECT_NAME": "BEIDOU 3M2",
        "OBJECT_ID": "2017-069B",
        "CENTER_NAME": "EARTH",
        "REF_FRAME": "TEME",
        "TIME_SYSTEM": "UTC",
        "MEAN_ELEMENT_THEORY": "SGP4",
        "EPOCH": "2025-04-13T12:10:11.610912",
        "MEAN_MOTION": "1.86230998",
        "ECCENTRICITY": "0.00101870",
        "INCLINATION": "56.3159",
        "RA_OF_ASC_NODE": "77.3147",
        "ARG_OF_PERICENTER": "328.6263",
        "MEAN_ANOMALY": "31.2866",
        "EPHEMERIS_TYPE": "0",
        "CLASSIFICATION_TYPE": "U",
        "NORAD_CAT_ID": "43002",
        "ELEMENT_SET_NO": "999",
        "REV_AT_EPOCH": "5059",
        "BSTAR": "0.00000000000000",
        "MEAN_MOTION_DOT": "-0.00000016",
        "MEAN_MOTION_DDOT": "0.0000000000000",
        "SEMIMAJOR_AXIS": "27906.189",
        "PERIOD": "773.233",
        "APOAPSIS": "21556.482",
        "PERIAPSIS": "21499.626",
        "OBJECT_TYPE": "PAYLOAD",
        "RCS_SIZE": "LARGE",
        "COUNTRY_CODE": "PRC",
        "LAUNCH_DATE": "2017-11-05",
        "SITE": "XSC",
        "DECAY_DATE": null,
        "FILE": "4701263",
        "GP_ID": "285538823",
        "TLE_LINE0": "0 BEIDOU 3M2",
        "TLE_LINE1": "1 43002U 17069B   25103.50707883 -.00000016  00000-0  00000-0 0  9999",
        "TLE_LINE2": "2 43002  56.3159  77.3147 0010187 328.6263  31.2866  1.86230998 50597"
    }
]